[{"OBJECT_NAME":"STARLINK-30785","OBJECT_ID":"2023-167S","EPOCH":"2026-03-09T13:22:21.643680","MEAN_MOTION":15.26746987,"ECCENTRICITY":0.0001287,"INCLINATION":42.9994,"RA_OF_ASC_NODE":144.2469,"ARG_OF_PERICENTER":264.4263,"MEAN_ANOMALY":95.6441,"EPHEMERIS_TYPE":0,"CLASSIFICATION_TYPE":"U","NORAD_CAT_ID":58191,"ELEMENT_SET_NO":999,"REV_AT_EPOCH":13096,"BSTAR":4.0356e-5,"MEAN_MOTION_DOT":8.23e-6,"MEAN_MOTION_DDOT":0},{"OBJECT_NAME":"FLOCK 4G-29","OBJECT_ID":"2025-009AK","EPOCH":"2026-03-09T19:33:04.927968","MEAN_MOTION":15.27382318,"ECCENTRICITY":0.00013664,"INCLINATION":97.4058,"RA_OF_ASC_NODE":151.3683,"ARG_OF_PERICENTER":288.0502,"MEAN_ANOMALY":72.0588,"EPHEMERIS_TYPE":0,"CLASSIFICATION_TYPE":"U","NORAD_CAT_ID":62642,"ELEMENT_SET_NO":999,"REV_AT_EPOCH":6372,"BSTAR":0.0004183135,"MEAN_MOTION_DOT":0.00011147,"MEAN_MOTION_DDOT":0}]
